NORAD_CAT_ID,OBJECT_NAME,OBJECT_TYPE,EPOCH,MEAN_MOTION,ECCENTRICITY,INCLINATION,RA_OF_ASC_NODE,ARG_OF_PERICENTER,MEAN_ANOMALY,BSTAR,MEAN_MOTION_DOT,MEAN_MOTION_DDOT,TLE_LINE0,TLE_LINE1,TLE_LINE2,SEMIMAJOR_AXIS,PERIOD,APOGEE,PERIGEE,DECAYED
52553.0,STARLINK-3858,PAYLOAD,2024-08-19 02:11:46,15.08856044,0.0001398,53.2168,156.8263,94.9014,265.2138,0.00036302,5.497e-05,0.0,0 STARLINK-3858,1 52553U 22051W   24232.09150517  .00005497  00000-0  36302-3 0  9993,2 52553  53.2168 156.8263 0001398  94.9014 265.2138 15.08856044125833,6917.831,95.437,540.663,538.729,0.0
52553.0,STARLINK-3858,PAYLOAD,2024-08-19 11:44:04,15.08851799,0.0001535,53.2169,155.0435,77.768,282.3484,0.00032006,4.811e-05,0.0,0 STARLINK-3858,1 52553U 22051W   24232.48894527  .00004811  00000-0  32006-3 0  9998,2 52553  53.2169 155.0435 0001535  77.7680 282.3484 15.08851799125899,6917.844,95.437,540.771,538.647,0.0
52553.0,STARLINK-3858,PAYLOAD,2024-08-20 03:37:56,15.08839654,0.000154,53.2163,152.0715,86.616,273.5008,0.00012136,1.644e-05,0.0,0 STARLINK-3858,1 52553U 22051W   24233.15135212  .00001644  00000-0  12136-3 0  9995,2 52553  53.2163 152.0715 0001540  86.6160 273.5008 15.08839654125990,6917.881,95.438,540.812,538.681,0.0
52553.0,STARLINK-3858,PAYLOAD,2024-08-21 03:28:43,15.08869419,0.0001692,53.2159,147.6132,88.7463,271.3723,0.0015467,0.00024433,0.0,0 STARLINK-3858,1 52553U 22051W   24234.14495128  .00024433  00000-0  15467-2 0  9990,2 52553  53.2159 147.6132 0001692  88.7463 271.3723 15.08869419126145,6917.79,95.436,540.826,538.485,0.0
52553.0,STARLINK-3858,PAYLOAD,2024-08-21 22:33:21,15.08834977,0.0003205,53.2158,144.0384,140.5635,219.5591,0.0010455,0.00016389,0.0,0 STARLINK-3858,1 52553U 22051W   24234.93983559  .00016389  00000-0  10455-2 0  9990,2 52553  53.2158 144.0384 0003205 140.5635 219.5591 15.08834977126265,6917.896,95.438,541.978,537.544,0.0
